[{"OBJECT_NAME":"STARLINK-34809","OBJECT_ID":"2025-165P","EPOCH":"2026-03-09T17:17:32.677440","MEAN_MOTION":15.05641231,"ECCENTRICITY":0.00014451,"INCLINATION":97.6018,"RA_OF_ASC_NODE":147.2388,"ARG_OF_PERICENTER":90.5075,"MEAN_ANOMALY":269.6317,"EPHEMERIS_TYPE":0,"CLASSIFICATION_TYPE":"U","NORAD_CAT_ID":65069,"ELEMENT_SET_NO":999,"REV_AT_EPOCH":3479,"BSTAR":0.00029193713,"MEAN_MOTION_DOT":4.153e-5,"MEAN_MOTION_DDOT":0},{"OBJECT_NAME":"CZ-2F DEB","OBJECT_ID":"2022-093H","EPOCH":"2026-03-09T22:47:12.359904","MEAN_MOTION":15.21733628,"ECCENTRICITY":0.00740619,"INCLINATION":50.0217,"RA_OF_ASC_NODE":315.3952,"ARG_OF_PERICENTER":34.8084,"MEAN_ANOMALY":325.7683,"EPHEMERIS_TYPE":0,"CLASSIFICATION_TYPE":"U","NORAD_CAT_ID":53364,"ELEMENT_SET_NO":999,"REV_AT_EPOCH":19831,"BSTAR":0.00048014935,"MEAN_MOTION_DOT":0.00011557,"MEAN_MOTION_DDOT":0}]
